start=new Date('2023-03-15T00:00:00.000Z').valueOf();
sats=[{"GP_ID":"228106492","ELEMENT_SET_NO":"999","COUNTRY_CODE":"US","MEAN_ELEMENT_THEORY":"SGP4","ARG_OF_PERICENTER":"106.4382","OBJECT_NAME":"STARLINK-2709","TLE_LINE2":"2 48664  53.0529 328.3659 0001627 106.4382 253.6786 15.06381898 99442","RCS_SIZE":"LARGE","SITE":"AFETR","RA_OF_ASC_NODE":"328.3659","MEAN_MOTION_DOT":"-0.00005092","CENTER_NAME":"EARTH","LAUNCH_DATE":"2021-05-26","SEMIMAJOR_AXIS":"6925.404","EPHEMERIS_TYPE":"0","REV_AT_EPOCH":"9944","BSTAR":"-0.00032334000000","TIME_SYSTEM":"UTC","OBJECT_ID":"2021-044AC","MEAN_MOTION":"15.06381898","FILE":"3860643","INCLINATION":"53.0529","MEAN_ANOMALY":"253.6786","PERIAPSIS":"546.142","PERIOD":"95.593","EPOCH":"2023-03-14T21:36:43.167168","REF_FRAME":"TEME","APOAPSIS":"548.396","MEAN_MOTION_DDOT":"0.0000000000000","NORAD_CAT_ID":"48664","OBJECT_TYPE":"PAYLOAD","ECCENTRICITY":"0.00016270","DECAY_DATE":null,"CLASSIFICATION_TYPE":"U","TLE_LINE1":"1 48664U 21044AC  23073.90049962 -.00005092  00000-0 -32334-3 0  9999"},{"SEMIMAJOR_AXIS":"6925.383","LAUNCH_DATE":"2021-05-26","CENTER_NAME":"EARTH","MEAN_MOTION_DOT":"0.00014556","RA_OF_ASC_NODE":"330.3871","SITE":"AFETR","TLE_LINE2":"2 48665  53.0564 330.3871 0001216  80.9515 279.1612 15.06388754 99370","RCS_SIZE":"LARGE","OBJECT_NAME":"STARLINK-2653","COUNTRY_CODE":"US","GP_ID":"228074798","ELEMENT_SET_NO":"999","ARG_OF_PERICENTER":"80.9515","MEAN_ELEMENT_THEORY":"SGP4","MEAN_MOTION":"15.06388754","OBJECT_ID":"2021-044AD","TIME_SYSTEM":"UTC","BSTAR":"0.00099439000000","REV_AT_EPOCH":"9937","EPHEMERIS_TYPE":"0","APOAPSIS":"548.090","EPOCH":"2023-03-14T10:47:53.283264","REF_FRAME":"TEME","PERIOD":"95.593","PERIAPSIS":"546.406","FILE":"3860373","MEAN_ANOMALY":"279.1612","INCLINATION":"53.0564","TLE_LINE1":"1 48665U 21044AD  23073.44992226  .00014556  00000-0  99439-3 0  9991","CLASSIFICATION_TYPE":"U","DECAY_DATE":null,"OBJECT_TYPE":"PAYLOAD","ECCENTRICITY":"0.00012160","NORAD_CAT_ID":"48665","MEAN_MOTION_DDOT":"0.0000000000000"},{"REV_AT_EPOCH":"9933","EPHEMERIS_TYPE":"0","TIME_SYSTEM":"UTC","OBJECT_ID":"2021-044AE","BSTAR":"0.00273290000000","MEAN_MOTION":"15.06385352","SITE":"AFETR","OBJECT_NAME":"STARLINK-2666","MEAN_ELEMENT_THEORY":"SGP4","GP_ID":"228075050","COUNTRY_CODE":"US","ELEMENT_SET_NO":"999","ARG_OF_PERICENTER":"122.6553","RCS_SIZE":"LARGE","TLE_LINE2":"2 48666  53.0533 331.7017 0001686 122.6553 237.4599 15.06385352 99339","SEMIMAJOR_AXIS":"6925.393","LAUNCH_DATE":"2021-05-26","RA_OF_ASC_NODE":"331.7017","MEAN_MOTION_DOT":"0.00040645","CENTER_NAME":"EARTH","MEAN_MOTION_DDOT":"0.0000000000000","OBJECT_TYPE":"PAYLOAD","ECCENTRICITY":"0.00016860","NORAD_CAT_ID":"48666","DECAY_DATE":null,"TLE_LINE1":"1 48666U 21044AE  23073.26294279  .00040645  00000-0  27329-2 0  9991","CLASSIFICATION_TYPE":"U","PERIOD":"95.593","MEAN_ANOMALY":"237.4599","FILE":"3860373","INCLINATION":"53.0533","PERIAPSIS":"546.091","APOAPSIS":"548.426","REF_FRAME":"TEME","EPOCH":"2023-03-14T06:18:38.257056"},{"RA_OF_ASC_NODE":"331.6584","MEAN_MOTION_DOT":"0.00012768","CENTER_NAME":"EARTH","SEMIMAJOR_AXIS":"6925.428","LAUNCH_DATE":"2021-05-26","OBJECT_NAME":"STARLINK-2735","COUNTRY_CODE":"US","GP_ID":"228039387","ELEMENT_SET_NO":"999","ARG_OF_PERICENTER":"68.4541","MEAN_ELEMENT_THEORY":"SGP4","RCS_SIZE":"LARGE","TLE_LINE2":"2 48667  53.0538 331.6584 0000967  68.4541 291.6551 15.06373959100173","SITE":"AFETR","OBJECT_ID":"2021-044AF","TIME_SYSTEM":"UTC","BSTAR":"0.00087512000000","MEAN_MOTION":"15.06373959","REV_AT_EPOCH":"10017","EPHEMERIS_TYPE":"0","EPOCH":"2023-03-14T04:00:32.113440","REF_FRAME":"TEME","APOAPSIS":"547.963","FILE":"3859750","MEAN_ANOMALY":"291.6551","INCLINATION":"53.0538","PERIAPSIS":"546.624","PERIOD":"95.594","DECAY_DATE":null,"TLE_LINE1":"1 48667U 21044AF  23073.16703835  .00012768  00000-0  87512-3 0  9990","CLASSIFICATION_TYPE":"U","MEAN_MOTION_DDOT":"0.0000000000000","ECCENTRICITY":"0.00009670","OBJECT_TYPE":"PAYLOAD","NORAD_CAT_ID":"48667"},{"MEAN_MOTION":"15.06397565","BSTAR":"0.00214720000000","OBJECT_ID":"2021-044AG","TIME_SYSTEM":"UTC","EPHEMERIS_TYPE":"0","REV_AT_EPOCH":"9932","MEAN_MOTION_DOT":"0.00031844","CENTER_NAME":"EARTH","RA_OF_ASC_NODE":"331.9702","LAUNCH_DATE":"2021-05-26","SEMIMAJOR_AXIS":"6925.356","TLE_LINE2":"2 48668  53.0540 331.9702 0000751 108.7739 251.3332 15.06397565 99323","RCS_SIZE":"LARGE","GP_ID":"228074049","ELEMENT_SET_NO":"999","COUNTRY_CODE":"US","MEAN_ELEMENT_THEORY":"SGP4","ARG_OF_PERICENTER":"108.7739","OBJECT_NAME":"STARLINK-2738","SITE":"AFETR","CLASSIFICATION_TYPE":"U","TLE_LINE1":"1 48668U 21044AG  23073.09699330  .00031844  00000-0  21472-2 0  9995","DECAY_DATE":null,"NORAD_CAT_ID":"48668","ECCENTRICITY":"0.00007510","OBJECT_TYPE":"PAYLOAD","MEAN_MOTION_DDOT":"0.0000000000000","REF_FRAME":"TEME","EPOCH":"2023-03-14T02:19:40.221120","APOAPSIS":"547.741","PERIAPSIS":"546.701","FILE":"3860373","INCLINATION":"53.0540","MEAN_ANOMALY":"251.3332","PERIOD":"95.592"},{"MEAN_MOTION_DDOT":"0.0000000000000","NORAD_CAT_ID":"48669","ECCENTRICITY":"0.00012720","OBJECT_TYPE":"PAYLOAD","DECAY_DATE":null,"CLASSIFICATION_TYPE":"U","TLE_LINE1":"1 48669U 21044AH  23073.09331027  .00006426  00000-0  44997-3 0  9998","MEAN_ANOMALY":"248.5805","FILE":"3860373","INCLINATION":"53.0548","PERIAPSIS":"546.353","PERIOD":"95.593","REF_FRAME":"TEME","EPOCH":"2023-03-14T02:14:22.007328","APOAPSIS":"548.115","EPHEMERIS_TYPE":"0","REV_AT_EPOCH":"9931","BSTAR":"0.00044997000000","OBJECT_ID":"2021-044AH","TIME_SYSTEM":"UTC","MEAN_MOTION":"15.06393231","ELEMENT_SET_NO":"999","GP_ID":"228074299","COUNTRY_CODE":"US","ARG_OF_PERICENTER":"111.5320","MEAN_ELEMENT_THEORY":"SGP4","OBJECT_NAME":"STARLINK-2707","RCS_SIZE":"LARGE","TLE_LINE2":"2 48669  53.0548 331.9826 0001272 111.5320 248.5805 15.06393231 99314","SITE":"AFETR","RA_OF_ASC_NODE":"331.9826","MEAN_MOTION_DOT":"0.00006426","CENTER_NAME":"EARTH","LAUNCH_DATE":"2021-05-26","SEMIMAJOR_AXIS":"6925.369"},{"EPHEMERIS_TYPE":"0","REV_AT_EPOCH":"9940","MEAN_MOTION":"15.06384930","BSTAR":"0.00058005000000","TIME_SYSTEM":"UTC","OBJECT_ID":"2021-044AJ","TLE_LINE2":"2 48670  53.0543 329.3244 0000811 108.3677 251.7400 15.06384930 99406","RCS_SIZE":"LARGE","GP_ID":"228107983","ELEMENT_SET_NO":"999","COUNTRY_CODE":"US","MEAN_ELEMENT_THEORY":"SGP4","ARG_OF_PERICENTER":"108.3677","OBJECT_NAME":"STARLINK-2763","SITE":"AFETR","MEAN_MOTION_DOT":"0.00008365","CENTER_NAME":"EARTH","RA_OF_ASC_NODE":"329.3244","LAUNCH_DATE":"2021-05-26","SEMIMAJOR_AXIS":"6925.395","NORAD_CAT_ID":"48670","ECCENTRICITY":"0.00008110","OBJECT_TYPE":"PAYLOAD","MEAN_MOTION_DDOT":"0.0000000000000","CLASSIFICATION_TYPE":"U","TLE_LINE1":"1 48670U 21044AJ  23073.68676275  .00008365  00000-0  58005-3 0  9991","DECAY_DATE":null,"PERIAPSIS":"546.698","FILE":"3860643","INCLINATION":"53.0543","MEAN_ANOMALY":"251.7400","PERIOD":"95.593","EPOCH":"2023-03-14T16:28:56.301600","REF_FRAME":"TEME","APOAPSIS":"547.821"},{"EPHEMERIS_TYPE":"0","REV_AT_EPOCH":"9930","BSTAR":"0.00047173000000","OBJECT_ID":"2021-044AK","TIME_SYSTEM":"UTC","MEAN_MOTION":"15.06387511","SITE":"AFETR","COUNTRY_CODE":"US","GP_ID":"228075301","ELEMENT_SET_NO":"999","ARG_OF_PERICENTER":"91.5187","MEAN_ELEMENT_THEORY":"SGP4","OBJECT_NAME":"STARLINK-2745","RCS_SIZE":"LARGE","TLE_LINE2":"2 48671  53.0534 332.3218 0001368  91.5187 268.5958 15.06387511 99300","SEMIMAJOR_AXIS":"6925.387","LAUNCH_DATE":"2021-05-26","RA_OF_ASC_NODE":"332.3218","MEAN_MOTION_DOT":"0.00006750","CENTER_NAME":"EARTH","MEAN_MOTION_DDOT":"0.0000000000000","NORAD_CAT_ID":"48671","ECCENTRICITY":"0.00013680","OBJECT_TYPE":"PAYLOAD","DECAY_DATE":null,"CLASSIFICATION_TYPE":"U","TLE_LINE1":"1 48671U 21044AK  23073.01959252  .00006750  00000-0  47173-3 0  9998","PERIOD":"95.593","FILE":"3860373","INCLINATION":"53.0534","MEAN_ANOMALY":"268.5958","PERIAPSIS":"546.304","APOAPSIS":"548.199","EPOCH":"2023-03-14T00:28:12.793728","REF_FRAME":"TEME"},{"APOAPSIS":"548.150","REF_FRAME":"TEME","EPOCH":"2023-03-14T05:09:33.516864","PERIOD":"95.594","FILE":"3859759","INCLINATION":"53.0548","MEAN_ANOMALY":"214.5979","PERIAPSIS":"546.447","DECAY_DATE":null,"CLASSIFICATION_TYPE":"U","TLE_LINE1":"1 48672U 21044AL  23073.21497126  .00000451  00000-0  49164-4 0  9993","MEAN_MOTION_DDOT":"0.0000000000000","NORAD_CAT_ID":"48672","OBJECT_TYPE":"PAYLOAD","ECCENTRICITY":"0.00012300","LAUNCH_DATE":"2021-05-26","SEMIMAJOR_AXIS":"6925.434","RA_OF_ASC_NODE":"331.4348","MEAN_MOTION_DOT":"0.00000451","CENTER_NAME":"EARTH","SITE":"AFETR","MEAN_ELEMENT_THEORY":"SGP4","GP_ID":"228039997","COUNTRY_CODE":"US","ELEMENT_SET_NO":"999","ARG_OF_PERICENTER":"145.5090","OBJECT_NAME":"STARLINK-2705","TLE_LINE2":"2 48672  53.0548 331.4348 0001230 145.5090 214.5979 15.06372285100232","RCS_SIZE":"LARGE","BSTAR":"0.00004916400000","TIME_SYSTEM":"UTC","OBJECT_ID":"2021-044AL","MEAN_MOTION":"15.06372285","EPHEMERIS_TYPE":"0","REV_AT_EPOCH":"10023"},{"EPHEMERIS_TYPE":"0","REV_AT_EPOCH":"10022","BSTAR":"0.00071001000000","OBJECT_ID":"2021-044AM","TIME_SYSTEM":"UTC","MEAN_MOTION":"15.06400286","SITE":"AFETR","GP_ID":"228039518","COUNTRY_CODE":"US","ELEMENT_SET_NO":"999","ARG_OF_PERICENTER":"103.6278","MEAN_ELEMENT_THEORY":"SGP4","OBJECT_NAME":"STARLINK-2711","TLE_LINE2":"2 48673  53.0560 331.7490 0001349 103.6278 256.4861 15.06400286100229","RCS_SIZE":"LARGE","SEMIMAJOR_AXIS":"6925.348","LAUNCH_DATE":"2021-05-26","RA_OF_ASC_NODE":"331.7490","MEAN_MOTION_DOT":"0.00010310","CENTER_NAME":"EARTH","MEAN_MOTION_DDOT":"0.0000000000000","NORAD_CAT_ID":"48673","ECCENTRICITY":"0.00013490","OBJECT_TYPE":"PAYLOAD","DECAY_DATE":null,"CLASSIFICATION_TYPE":"U","TLE_LINE1":"1 48673U 21044AM  23073.14490852  .00010310  00000-0  71001-3 0  9994","PERIOD":"95.592","FILE":"3859761","INCLINATION":"53.0560","MEAN_ANOMALY":"256.4861","PERIAPSIS":"546.278","APOAPSIS":"548.147","REF_FRAME":"TEME","EPOCH":"2023-03-14T03:28:40.096128"}];
